NORAD_CAT_ID,OBJECT_NAME,OBJECT_TYPE,EPOCH,MEAN_MOTION,ECCENTRICITY,INCLINATION,RA_OF_ASC_NODE,ARG_OF_PERICENTER,MEAN_ANOMALY,BSTAR,MEAN_MOTION_DOT,MEAN_MOTION_DDOT,TLE_LINE0,TLE_LINE1,TLE_LINE2,SEMIMAJOR_AXIS,PERIOD,APOGEE,PERIGEE,DECAYED
53173.0,STARLINK-4300,PAYLOAD,2022-11-26 22:00:00,15.08829288,0.0001206,53.2145,120.6225,75.4243,270.0739,0.001756,0.00027761,0.0,0 STARLINK-4300,1 53173U 22083AT  22330.91667824  .00027761  00000-0  17560-2 0  9991,2 53173  53.2145 120.6225 0001206  75.4243 270.0739 15.08829288 21364,6917.913000000001,95.438,540.612,538.944,0.0
53173.0,STARLINK-4300,PAYLOAD,2022-11-27 14:00:01,15.08837567,0.0001299,53.2148,117.6292,84.9525,283.7191,-0.0017834,-0.00028556,0.0,0 STARLINK-4300,1 53173U 22083AT  22331.58334491 -.00028556  00000-0 -17834-2 0  9995,2 53173  53.2148 117.6292 0001299  84.9525 283.7191 15.08837567  1301,6917.888000000001,95.438,540.651,538.854,0.0
53173.0,STARLINK-4300,PAYLOAD,2022-11-28 00:00:00,15.08838602,0.0001279,53.2143,115.759,78.892,34.2499,-0.0010182,-0.00016455,0.0,0 STARLINK-4300,1 53173U 22083AT  22332.00001157 -.00016455  00000-0 -10182-2 0  9997,2 53173  53.2143 115.7590 0001279  78.8920  34.2499 15.08838602  1306,6917.885,95.438,540.634,538.865,0.0
53173.0,STARLINK-4300,PAYLOAD,2022-11-28 06:00:00,15.08808911,0.0001225,53.2144,114.6356,89.0163,302.8256,0.0030665,0.00048812,0.0,0 STARLINK-4300,1 53173U 22083AT  22332.25001157  .00048812  00000-0  30665-2 0  9992,2 53173  53.2144 114.6356 0001225  89.0163 302.8256 15.08808911 21564,6917.975,95.44,540.688,538.993,0.0
53173.0,STARLINK-4300,PAYLOAD,2022-11-28 22:00:01,15.08841744,0.0001273,53.214,111.6445,75.7268,339.3529,0.0008244,0.00012857,0.0,0 STARLINK-4300,1 53173U 22083AT  22332.91668981  .00012857  00000-0  82440-3 0  9998,2 53173  53.2140 111.6445 0001273  75.7268 339.3529 15.08841744  1306,6917.875,95.437,540.621,538.859,0.0
53173.0,STARLINK-4300,PAYLOAD,2022-11-29 14:00:01,15.08842472,0.0001418,53.214,108.6512,82.17,356.0996,-0.001535,-0.00024636,0.0,0 STARLINK-4300,1 53173U 22083AT  22333.58335648 -.00024636  00000-0 -15350-2 0  9998,2 53173  53.2140 108.6512 0001418  82.1700 356.0996 15.08842472 21766,6917.873000000001,95.437,540.719,538.757,0.0
53173.0,STARLINK-4300,PAYLOAD,2022-11-29 22:00:00,15.08835687,0.0001383,53.2138,107.1552,74.7164,15.0784,0.0010743,0.00016849,0.0,0 STARLINK-4300,1 53173U 22083AT  22333.91667824  .00016849  00000-0  10743-2 0  9995,2 53173  53.2138 107.1552 0001383  74.7164  15.0784 15.08835687  1308,6917.894,95.438,540.715,538.802,0.0
53173.0,STARLINK-4300,PAYLOAD,2022-11-30 06:00:00,15.08825494,0.000132,53.2139,105.6569,84.1959,17.2033,0.0029606,0.00047126,0.0,0 STARLINK-4300,1 53173U 22083AT  22334.25001157  .00047126  00000-0  29606-2 0  9994,2 53173  53.2139 105.6569 0001320  84.1959  17.2033 15.08825494 21867,6917.925,95.438,540.703,538.877,0.0
53173.0,STARLINK-4300,PAYLOAD,2022-11-30 14:00:01,15.08865458,0.000138,53.2141,104.1617,77.2677,35.7936,-0.0036319,-0.00057667,0.0,0 STARLINK-4300,1 53173U 22083AT  22334.58335648 -.00057667  00000-0 -36319-2 0  9997,2 53173  53.2141 104.1617 0001380  77.2677  35.7936 15.08865458  1302,6917.803000000001,95.436,540.622,538.7130000000002,0.0
53173.0,STARLINK-4300,PAYLOAD,2022-11-30 22:00:00,15.08884553,0.0001355,53.2151,102.6633,68.8347,55.7536,-0.0075344999999999,-0.00118378,0.0,0 STARLINK-4300,1 53173U 22083AT  22334.91667824 -.00118378  00000-0 -75345-2 0  9997,2 53173  53.2151 102.6633 0001355  68.8347  55.7536 15.08884553  1301,6917.744000000002,95.435,540.547,538.672,0.0
53173.0,STARLINK-4300,PAYLOAD,2022-12-01 06:00:00,15.08818622,0.0001230999999999,53.2143,101.1666,81.0201,55.1607,0.0028472,0.0004529,0.0,0 STARLINK-4300,1 53173U 22083AT  22335.25001157  .00045290  00000-0  28472-2 0  9995,2 53173  53.2143 101.1666 0001231  81.0201  55.1607 15.08818622 22019,6917.946,95.439,540.6619999999998,538.9590000000002,0.0
53173.0,STARLINK-4300,PAYLOAD,2022-12-01 14:00:01,15.08858861,0.0001268,53.2142,99.6722,72.2235,75.5607,-0.0030293,-0.00048201,0.0,0 STARLINK-4300,1 53173U 22083AT  22335.58334491 -.00048201  00000-0 -30293-2 0  9992,2 53173  53.2142  99.6722 0001268  72.2235  75.5607 15.08858861  1305,6917.823,95.436,540.565,538.811,0.0
53173.0,STARLINK-4300,PAYLOAD,2022-12-01 20:00:01,15.08815941,0.0001232,53.2143,98.5504,64.2827,2.2688,0.0030204,0.00048078,0.0,0 STARLINK-4300,1 53173U 22083AT  22335.83335648  .00048078  00000-0  30204-2 0  9997,2 53173  53.2143  98.5504 0001232  64.2827   2.2688 15.08815941 22100,6917.954000000002,95.439,540.6709999999998,538.967,0.0
53173.0,STARLINK-4300,PAYLOAD,2022-12-02 00:00:00,15.08853732,0.0001187,53.2144,97.8011,69.3027,182.9666,-0.001577,-0.00025307,0.0,0 STARLINK-4300,1 53173U 22083AT  22336.00001157 -.00025307  00000-0 -15770-2 0  9995,2 53173  53.2144  97.8011 0001187  69.3027 182.9666 15.08853732  1304,6917.8380000000025,95.437,540.525,538.882,0.0
53173.0,STARLINK-4300,PAYLOAD,2022-12-02 06:00:00,15.08731986,0.0001264,53.2166,96.6734,79.6818,91.2924,0.0095967,0.00155372,0.0,0 STARLINK-4300,1 53173U 22083AT  22336.25001157  .00155372  00000-0  95967-2 0  9992,2 53173  53.2166  96.6734 0001264  79.6818  91.2924 15.08731986 22167,6918.2109999999975,95.444,540.95,539.201,0.0
53173.0,STARLINK-4300,PAYLOAD,2022-12-02 14:00:01,15.08830632,0.0001365,53.2147,95.1828,70.4652,112.0881,-0.00072331,-0.00011778,0.0,0 STARLINK-4300,1 53173U 22083AT  22336.58334491 -.00011778  00000-0 -72331-3 0  9992,2 53173  53.2147  95.1828 0001365  70.4652 112.0881 15.08830632  1306,6917.909000000002,95.438,540.7180000000002,538.83,0.0
53173.0,STARLINK-4300,PAYLOAD,2022-12-02 22:00:00,15.08846911,0.000135,53.2147,93.6862,66.8838,127.2483,-0.00032481,-5.455e-05,0.0,0 STARLINK-4300,1 53173U 22083AT  22336.91667824 -.00005455  00000-0 -32481-3 0  9995,2 53173  53.2147  93.6862 0001350  66.8838 127.2483 15.08846911 22267,6917.859,95.437,540.658,538.79,0.0
53173.0,STARLINK-4300,PAYLOAD,2022-12-03 14:00:01,15.08831717,0.0001469,53.2151,90.6934,69.3082,148.0344,-0.00080288,-0.0001304,0.0,0 STARLINK-4300,1 53173U 22083AT  22337.58334491 -.00013040  00000-0 -80288-3 0  9997,2 53173  53.2151  90.6934 0001469  69.3082 148.0344 15.08831717  1306,6917.906,95.438,540.7869999999998,538.754,0.0
53173.0,STARLINK-4300,PAYLOAD,2022-12-03 22:00:00,15.088549100000002,0.0001418,53.215,89.1967,68.1174,160.8003,-0.0022626,-0.00036131,0.0,0 STARLINK-4300,1 53173U 22083AT  22337.91667824 -.00036131  00000-0 -22626-2 0  9990,2 53173  53.2150  89.1967 0001418  68.1174 160.8003 15.08854910  1301,6917.835,95.437,540.681,538.719,0.0
53173.0,STARLINK-4300,PAYLOAD,2022-12-04 06:00:00,15.08810631,0.0001279,53.2153,87.6989,76.2054,164.3163,0.0017582999999999,0.00027784,0.0,0 STARLINK-4300,1 53173U 22083AT  22338.25001157  .00027784  00000-0  17583-2 0  9997,2 53173  53.2153  87.6989 0001279  76.2054 164.3163 15.08810631 22461,6917.97,95.439,540.72,538.95,0.0
53173.0,STARLINK-4300,PAYLOAD,2022-12-04 14:00:01,15.08826516,0.0001356,53.2153,86.2043,67.1658,184.9301,-1.1293e-05,-4.68e-06,0.0,0 STARLINK-4300,1 53173U 22083AT  22338.58334491 -.00000468  00000-0 -11293-4 0  9999,2 53173  53.2153  86.2043 0001356  67.1658 184.9301 15.08826516  1303,6917.922,95.438,540.725,538.849,0.0
53173.0,STARLINK-4300,PAYLOAD,2022-12-04 22:00:00,15.08854403,0.000131,53.2151,84.7075,65.9189,197.7548,-0.0010290999999999,-0.00016635,0.0,0 STARLINK-4300,1 53173U 22083AT  22338.91667824 -.00016635  00000-0 -10291-2 0  9993,2 53173  53.2151  84.7075 0001310  65.9189 197.7548 15.08854403  1305,6917.8359999999975,95.437,540.6080000000002,538.795,0.0
53173.0,STARLINK-4300,PAYLOAD,2022-12-05 06:00:00,15.08851932,0.0001296,53.2153,83.2099,75.9191,199.3624,0.00039188,5.956e-05,0.0,0 STARLINK-4300,1 53173U 22083AT  22339.25001157  .00005956  00000-0  39188-3 0  9991,2 53173  53.2153  83.2099 0001296  75.9191 199.3624 15.08851932 22618,6917.844,95.437,540.605,538.812,0.0
53173.0,STARLINK-4300,PAYLOAD,2022-12-05 14:00:01,15.08836922,0.0001458,53.2153,81.7153,67.505,219.4552,0.00055484,8.553e-05,0.0,0 STARLINK-4300,1 53173U 22083AT  22339.58335648  .00008553  00000-0  55484-3 0  9995,2 53173  53.2153  81.7153 0001458  67.5050 219.4552 15.08836922  1302,6917.89,95.438,540.763,538.746,0.0
53173.0,STARLINK-4300,PAYLOAD,2022-12-05 15:54:47,15.08846895,0.0001218,53.217,81.3567,67.013,293.099,5.4368e-05,5.78e-06,0.0,0 STARLINK-4300,1 53173U 22083AT  22339.66305279  .00000578  00000-0  54368-4 0  9991,2 53173  53.2170  81.3567 0001218  67.0130 293.0990 15.08846895 22042,6917.859,95.437,540.567,538.882,0.0
53173.0,STARLINK-4300,PAYLOAD,2022-12-05 23:51:43,15.08846431,0.0001238,53.2167,79.8698,66.3787,293.7335,1.9802e-05,2.7e-07,0.0,0 STARLINK-4300,1 53173U 22083AT  22339.99425288  .00000027  00000-0  19802-4 0  9993,2 53173  53.2167  79.8698 0001238  66.3787 293.7335 15.08846431 22739,6917.861,95.437,540.582,538.869,0.0
53173.0,STARLINK-4300,PAYLOAD,2022-12-06 07:48:39,15.08836941,0.0001223,53.2166,78.3826,67.027,293.0851,5.3107e-05,5.57e-06,0.0,0 STARLINK-4300,1 53173U 22083AT  22340.32545805  .00000557  00000-0  53107-4 0  9994,2 53173  53.2166  78.3826 0001223  67.0270 293.0851 15.08836941 22780,6917.89,95.438,540.601,538.909,0.0
53173.0,STARLINK-4300,PAYLOAD,2022-12-06 12:34:49,15.0883479,0.0001248,53.217,77.4911,68.4009,291.7115,7.3896e-05,8.88e-06,0.0,0 STARLINK-4300,1 53173U 22083AT  22340.52417893  .00000888  00000-0  73896-4 0  9995,2 53173  53.2170  77.4911 0001248  68.4009 291.7115 15.08834790 22173,6917.896,95.438,540.625,538.898,0.0
53173.0,STARLINK-4300,PAYLOAD,2022-12-07 06:04:04,15.0883427,0.0001286999999999,53.2176,74.2208,70.7009,289.4123,-9.0546e-05,-1.728e-05,0.0,0 STARLINK-4300,1 53173U 22083AT  22341.25282783 -.00001728  00000-0 -90546-4 0  9991,2 53173  53.2176  74.2208 0001287  70.7009 289.4123 15.08834270 22921,6917.898,95.438,540.653,538.873,0.0
